[{"OBJECT_NAME":"STARLINK-31931","OBJECT_ID":"2024-098G","EPOCH":"2026-03-09T23:01:51.686400","MEAN_MOTION":15.2756989,"ECCENTRICITY":0.00010586,"INCLINATION":43.0021,"RA_OF_ASC_NODE":276.797,"ARG_OF_PERICENTER":235.6554,"MEAN_ANOMALY":124.4198,"EPHEMERIS_TYPE":0,"CLASSIFICATION_TYPE":"U","NORAD_CAT_ID":59864,"ELEMENT_SET_NO":999,"REV_AT_EPOCH":10188,"BSTAR":2.7684931e-5,"MEAN_MOTION_DOT":5.0e-6,"MEAN_MOTION_DDOT":0},{"OBJECT_NAME":"FLOCK 4G-29","OBJECT_ID":"2025-009AK","EPOCH":"2026-03-09T19:33:04.927968","MEAN_MOTION":15.27382318,"ECCENTRICITY":0.00013664,"INCLINATION":97.4058,"RA_OF_ASC_NODE":151.3683,"ARG_OF_PERICENTER":288.0502,"MEAN_ANOMALY":72.0588,"EPHEMERIS_TYPE":0,"CLASSIFICATION_TYPE":"U","NORAD_CAT_ID":62642,"ELEMENT_SET_NO":999,"REV_AT_EPOCH":6372,"BSTAR":0.0004183135,"MEAN_MOTION_DOT":0.00011147,"MEAN_MOTION_DDOT":0}]
